[{"OBJECT_NAME":"STARLINK-5479","OBJECT_ID":"2023-021AL","EPOCH":"2026-03-09T15:40:35.802624","MEAN_MOTION":14.97521079,"ECCENTRICITY":0.00030974,"INCLINATION":70.0006,"RA_OF_ASC_NODE":164.3838,"ARG_OF_PERICENTER":266.5141,"MEAN_ANOMALY":93.5663,"EPHEMERIS_TYPE":0,"CLASSIFICATION_TYPE":"U","NORAD_CAT_ID":55662,"ELEMENT_SET_NO":999,"REV_AT_EPOCH":16928,"BSTAR":-5.6671748e-5,"MEAN_MOTION_DOT":-7.54e-6,"MEAN_MOTION_DDOT":0},{"OBJECT_NAME":"RUBIN-2 & SAFIR-M","OBJECT_ID":"2002-058A","EPOCH":"2026-03-09T10:09:37.751904","MEAN_MOTION":14.79300833,"ECCENTRICITY":0.00785333,"INCLINATION":64.5523,"RA_OF_ASC_NODE":77.3867,"ARG_OF_PERICENTER":281.6967,"MEAN_ANOMALY":77.5333,"EPHEMERIS_TYPE":0,"CLASSIFICATION_TYPE":"U","NORAD_CAT_ID":27605,"ELEMENT_SET_NO":999,"REV_AT_EPOCH":24982,"BSTAR":0.00016474829,"MEAN_MOTION_DOT":1.141e-5,"MEAN_MOTION_DDOT":0}]
